{
  "type": "FeatureCollection",
  "features": [
    {
      "type": "Feature",
      "properties": {
        "norad_id": 67074,
        "name": "ELECTRON KICK STAGE R/B",
        "group": "last-30-days",
        "lat": -64.79374791633755,
        "lon": 161.59140953293635,
        "alt_km": 338.3330234477535,
        "timestamp": "2025-12-23T09:49:05.800608+00:00",
        "meta_object_name": "ELECTRON KICK STAGE R/B",
        "meta_object_id": "2025-297C",
        "meta_epoch": "2025-12-22T20:13:53.016672",
        "meta_mean_motion": 15.5817004,
        "meta_eccentricity": 0.01952116,
        "meta_inclination": 97.482,
        "meta_ra_of_asc_node": 144.7824,
        "meta_arg_of_pericenter": 232.8342,
        "meta_mean_anomaly": 125.4951,
        "meta_ephemeris_type": 0,
        "meta_classification_type": "U",
        "meta_norad_cat_id": 67074,
        "meta_element_set_no": 999,
        "meta_rev_at_epoch": 135,
        "meta_bstar": 0.0017309547,
        "meta_mean_motion_dot": 0.00328958,
        "meta_mean_motion_ddot": 3.1004017e-05,
        "tle_line1": "1 67074U 25297C   25356.84297473  .00328958  31004-4  17310-2 0  9995",
        "tle_line2": "2 67074  97.4820 144.7824 0195211 232.8342 125.4951 15.58170040  1356"
      },
      "geometry": {
        "type": "Point",
        "coordinates": [
          161.59140953293635,
          -64.79374791633755
        ]
      }
    },
    {
      "type": "Feature",
      "properties": {
        "norad_id": 67075,
        "name": "STARLINK-36230",
        "group": "last-30-days",
        "lat": -52.82875138135536,
        "lon": 68.41341325601682,
        "alt_km": 312.3883858433519,
        "timestamp": "2025-12-23T09:49:05.800619+00:00",
        "meta_object_name": "STARLINK-36230",
        "meta_object_id": "2025-298A",
        "meta_epoch": "2025-12-22T22:00:03.000096",
        "meta_mean_motion": 15.89015224,
        "meta_eccentricity": 0.00045924,
        "meta_inclination": 69.9969,
        "meta_ra_of_asc_node": 221.1208,
        "meta_arg_of_pericenter": 274.9587,
        "meta_mean_anomaly": 28.1994,
        "meta_ephemeris_type": 0,
        "meta_classification_type": "U",
        "meta_norad_cat_id": 67075,
        "meta_element_set_no": 999,
        "meta_rev_at_epoch": 261,
        "meta_bstar": -0.0042624258,
        "meta_mean_motion_dot": -0.01214537,
        "meta_mean_motion_ddot": 0.00042029021,
        "tle_line1": "1 67075U 25298A   25356.91670139 -.01214537  42029-3 -42624-2 0  9993",
        "tle_line2": "2 67075  69.9969 221.1208 0004592 274.9587  28.1994 15.89015224  2612"
      },
      "geometry": {
        "type": "Point",
        "coordinates": [
          68.41341325601682,
          -52.82875138135536
        ]
      }
    },
    {
      "type": "Feature",
      "properties": {
        "norad_id": 67076,
        "name": "STARLINK-36240",
        "group": "last-30-days",
        "lat": -54.41389672732585,
        "lon": 70.30085420123943,
        "alt_km": 312.3530388601366,
        "timestamp": "2025-12-23T09:49:05.800629+00:00",
        "meta_object_name": "STARLINK-36240",
        "meta_object_id": "2025-298B",
        "meta_epoch": "2025-12-22T22:00:03.000096",
        "meta_mean_motion": 15.89083952,
        "meta_eccentricity": 0.00045359,
        "meta_inclination": 69.9969,
        "meta_ra_of_asc_node": 221.1184,
        "meta_arg_of_pericenter": 271.1055,
        "meta_mean_anomaly": 33.9509,
        "meta_ephemeris_type": 0,
        "meta_classification_type": "U",
        "meta_norad_cat_id": 67076,
        "meta_element_set_no": 999,
        "meta_rev_at_epoch": 261,
        "meta_bstar": -0.0045802314,
        "meta_mean_motion_dot": -0.01308632,
        "meta_mean_motion_ddot": 0.00048267494,
        "tle_line1": "1 67076U 25298B   25356.91670139 -.01308632  48267-3 -45802-2 0  9995",
        "tle_line2": "2 67076  69.9969 221.1184 0004535 271.1055  33.9509 15.89083952  2611"
      },
      "geometry": {
        "type": "Point",
        "coordinates": [
          70.30085420123943,
          -54.41389672732585
        ]
      }
    },
    {
      "type": "Feature",
      "properties": {
        "norad_id": 67077,
        "name": "STARLINK-36243",
        "group": "last-30-days",
        "lat": -56.2475364866492,
        "lon": 72.72957401022767,
        "alt_km": 312.3683111295504,
        "timestamp": "2025-12-23T09:49:05.800642+00:00",
        "meta_object_name": "STARLINK-36243",
        "meta_object_id": "2025-298C",
        "meta_epoch": "2025-12-22T22:00:03.000096",
        "meta_mean_motion": 15.89151866,
        "meta_eccentricity": 0.00047227,
        "meta_inclination": 69.9969,
        "meta_ra_of_asc_node": 221.1159,
        "meta_arg_of_pericenter": 272.3343,
        "meta_mean_anomaly": 34.997,
        "meta_ephemeris_type": 0,
        "meta_classification_type": "U",
        "meta_norad_cat_id": 67077,
        "meta_element_set_no": 999,
        "meta_rev_at_epoch": 261,
        "meta_bstar": -0.0049550678,
        "meta_mean_motion_dot": -0.01419477,
        "meta_mean_motion_ddot": 0.00056118105,
        "tle_line1": "1 67077U 25298C   25356.91670139 -.01419477  56118-3 -49551-2 0  9995",
        "tle_line2": "2 67077  69.9969 221.1159 0004722 272.3343  34.9970 15.89151866  2618"
      },
      "geometry": {
        "type": "Point",
        "coordinates": [
          72.72957401022767,
          -56.2475364866492
        ]
      }
    },
    {
      "type": "Feature",
      "properties": {
        "norad_id": 67078,
        "name": "STARLINK-36236",
        "group": "last-30-days",
        "lat": -57.62821958669968,
        "lon": 74.76801244246546,
        "alt_km": 312.34713678688513,
        "timestamp": "2025-12-23T09:49:05.800652+00:00",
        "meta_object_name": "STARLINK-36236",
        "meta_object_id": "2025-298D",
        "meta_epoch": "2025-12-22T22:00:03.000096",
        "meta_mean_motion": 15.89207765,
        "meta_eccentricity": 0.00048036,
        "meta_inclination": 69.9969,
        "meta_ra_of_asc_node": 221.1136,
        "meta_arg_of_pericenter": 271.7521,
        "meta_mean_anomaly": 37.3235,
        "meta_ephemeris_type": 0,
        "meta_classification_type": "U",
        "meta_norad_cat_id": 67078,
        "meta_element_set_no": 999,
        "meta_rev_at_epoch": 261,
        "meta_bstar": -0.0052230176,
        "meta_mean_motion_dot": -0.01499585,
        "meta_mean_motion_ddot": 0.00062137385,
        "tle_line1": "1 67078U 25298D   25356.91670139 -.01499585  62137-3 -52230-2 0  9990",
        "tle_line2": "2 67078  69.9969 221.1136 0004803 271.7521  37.3235 15.89207765  2616"
      },
      "geometry": {
        "type": "Point",
        "coordinates": [
          74.76801244246546,
          -57.62821958669968
        ]
      }
    },
    {
      "type": "Feature",
      "properties": {
        "norad_id": 67079,
        "name": "STARLINK-36159",
        "group": "last-30-days",
        "lat": -59.374159967885944,
        "lon": 77.66710207533076,
        "alt_km": 312.4820388458138,
        "timestamp": "2025-12-23T09:49:05.800662+00:00",
        "meta_object_name": "STARLINK-36159",
        "meta_object_id": "2025-298E",
        "meta_epoch": "2025-12-22T22:00:03.000096",
        "meta_mean_motion": 15.89266419,
        "meta_eccentricity": 0.00047883,
        "meta_inclination": 69.997,
        "meta_ra_of_asc_node": 221.1111,
        "meta_arg_of_pericenter": 272.6553,
        "meta_mean_anomaly": 38.7218,
        "meta_ephemeris_type": 0,
        "meta_classification_type": "U",
        "meta_norad_cat_id": 67079,
        "meta_element_set_no": 999,
        "meta_rev_at_epoch": 261,
        "meta_bstar": -0.0055819903,
        "meta_mean_motion_dot": -0.01606099,
        "meta_mean_motion_ddot": 0.0007057785,
        "tle_line1": "1 67079U 25298E   25356.91670139 -.01606099  70578-3 -55820-2 0  9997",
        "tle_line2": "2 67079  69.9970 221.1111 0004788 272.6553  38.7218 15.89266419  2616"
      },
      "geometry": {
        "type": "Point",
        "coordinates": [
          77.66710207533076,
          -59.374159967885944
        ]
      }
    },
    {
      "type": "Feature",
      "properties": {
        "norad_id": 67080,
        "name": "STARLINK-36158",
        "group": "last-30-days",
        "lat": -60.95979383512127,
        "lon": 80.6911388562326,
        "alt_km": 312.6615067372959,
        "timestamp": "2025-12-23T09:49:05.800672+00:00",
        "meta_object_name": "STARLINK-36158",
        "meta_object_id": "2025-298F",
        "meta_epoch": "2025-12-22T22:00:03.000096",
        "meta_mean_motion": 15.89314883,
        "meta_eccentricity": 0.00045618,
        "meta_inclination": 69.997,
        "meta_ra_of_asc_node": 221.1083,
        "meta_arg_of_pericenter": 272.4288,
        "meta_mean_anomaly": 41.1116,
        "meta_ephemeris_type": 0,
        "meta_classification_type": "U",
        "meta_norad_cat_id": 67080,
        "meta_element_set_no": 999,
        "meta_rev_at_epoch": 255,
        "meta_bstar": -0.0058244604,
        "meta_mean_motion_dot": -0.016789,
        "meta_mean_motion_ddot": 0.00076648295,
        "tle_line1": "1 67080U 25298F   25356.91670139 -.01678900  76648-3 -58245-2 0  9997",
        "tle_line2": "2 67080  69.9970 221.1083 0004561 272.4288  41.1116 15.89314883  2555"
      },
      "geometry": {
        "type": "Point",
        "coordinates": [
          80.6911388562326,
          -60.95979383512127
        ]
      }
    }
  ]
}